OBJECT_NAME,OBJECT_ID,EPOCH,MEAN_MOTION,ECCENTRICITY,INCLINATION,RA_OF_ASC_NODE,ARG_OF_PERICENTER,MEAN_ANOMALY,EPHEMERIS_TYPE,CLASSIFICATION_TYPE,NORAD_CAT_ID,ELEMENT_SET_NO,REV_AT_EPOCH,BSTAR,MEAN_MOTION_DOT,MEAN_MOTION_DDOT
EYESAT A (AO-27),1993-061C,2026-06-15T04:21:52.250400,14.30941747,.00095218,98.6881,233.5961,104.9010,255.3227,0,U,22825,999,70671,.48753047E-4,.84E-6,0
ITAMSAT (IO-26),1993-061D,2026-06-15T03:53:05.177472,14.31368614,.00100916,98.6828,233.4933,90.3104,269.9235,0,U,22826,999,70702,.48144623E-4,.83E-6,0
RADIO ROSTO (RS15),1994-085A,2026-06-15T12:28:11.491680,11.27583474,.01559,64.8179,305.9132,4.1846,356.0343,0,U,23439,999,29571,-.31591E-3,-.54E-6,0
JAS-2 (FO-29),1996-046B,2026-06-15T12:52:49.946016,13.53274267,.0350881,98.5240,15.6350,100.7038,263.3808,0,U,24278,999,47294,.45334E-4,.13E-6,0
FORTE,1997-047A,2026-06-14T23:50:25.417536,14.27944382,.00246159,69.9540,18.9768,280.0731,79.7614,0,U,24920,999,49837,.7378675E-4,.125E-5,0
TECHSAT 1B (GO-32),1998-043D,2026-06-15T12:27:25.382592,14.24428091,.000097,99.0067,159.2356,166.6144,193.5060,0,U,25397,999,45109,.3324E-4,.3E-6,0
ISS (ZARYA),1998-067A,2026-06-15T12:17:49.454880,15.49243792,.000485,51.6337,308.3821,189.0196,171.0706,0,U,25544,999,57149,.14626E-3,.7685E-4,0
IMAGE,2000-017A,2026-06-11T08:17:58.695072,1.68665984,.7436383,94.2241,315.2958,288.4674,8.8959,0,U,26113,999,16140,.22926E-1,.11E-6,0
CLUSTER II-FM7 (SAMBA),2000-041A,2026-06-17T03:20:03.973632,0.44868040,.9054007,149.9159,50.9864,268.1291,359.6411,0,U,26410,999,2030,0,.13373E-3,0
CLUSTER II-FM8 (TANGO),2000-045B,2026-06-15T04:28:42.162240,0.44420492,.9056528,150.1452,51.6789,268.6418,2.8164,0,U,26464,999,2030,0,.11716E-3,0
ODIN,2001-007A,2026-06-15T09:06:34.324416,15.75246975,.000685,97.3827,207.2059,145.0151,215.1565,0,U,26702,999,38911,.1001E-2,.15242E-2,0
OMNI-M1,2001-026A,2026-06-15T04:33:26.191008,3.92401526,.0014128,44.8311,245.7243,52.9927,307.1972,0,U,26857,999,20549,0,.3E-7,0
PCSAT (NO-44),2001-043C,2026-06-15T11:35:33.391104,14.31955550,.0006076,67.0506,248.6795,264.5468,95.4941,0,U,26931,999,29020,.62026E-4,.83E-6,0
PROBA-1,2001-049B,2026-06-15T13:02:48.967584,15.07492372,.0056339,97.9596,175.0185,127.2820,233.3563,0,U,26958,999,34337,.16052E-3,.2453E-4,0
SAUDISAT 1C (SO-50),2002-058C,2026-06-15T08:01:51.375360,14.83043230,.0075307,64.5510,134.7171,262.8143,96.4397,0,U,27607,999,26418,.11895E-3,.861E-5,0
CORIOLIS,2003-001A,2026-06-15T12:08:40.079616,14.19944407,.0013277,98.7125,173.4164,213.8978,146.1351,0,U,27640,999,21398,.57567E-4,.79E-6,0
CUTE-1 (CO-55),2003-031E,2026-06-15T11:48:04.525920,14.24334794,.0009421,98.6736,175.0719,182.9125,177.2000,0,U,27844,999,19143,.12167E-3,.237E-5,0
CUBESAT XI-IV (CO-57),2003-031J,2026-06-15T11:30:13.793184,14.23619986,.0008908,98.6767,174.7736,202.2653,157.8140,0,U,27848,999,19113,.10658E-3,.199E-5,0
MOZHAETS 4 (RS22),2003-042A,2026-06-15T12:26:57.476256,14.73465563,.0009964,98.3461,350.8304,275.8462,168.1396,0,U,27939,999,21530,.15197E-3,.933E-5,0
